{"type": "FeatureCollection", "features": [ {"type": "Feature", "properties": {"norad_id": 29953, "name": "FENGYUN 1C DEB", "group": "fengyun-1c-debris", "lat": 75.21101726252162, "lon": -164.70691474147338, "alt_km": 985.3493162075265, "timestamp": "2025-12-17T23:38:07.126588+00:00", "meta": {"OBJECT_NAME": "FENGYUN 1C DEB", "OBJECT_ID": "1999-025KB", "EPOCH": "2025-12-17T11:38:32.735904", "MEAN_MOTION": 13.90852539, "ECCENTRICITY": 0.01055793, "INCLINATION": 98.9376, "RA_OF_ASC_NODE": 338.2234, "ARG_OF_PERICENTER": 253.6066, "MEAN_ANOMALY": 228.1114, "EPHEMERIS_TYPE": 0, "CLASSIFICATION_TYPE": "U", "NORAD_CAT_ID": 29953, "ELEMENT_SET_NO": 999, "REV_AT_EPOCH": 95928, "BSTAR": 0.00042969008, "MEAN_MOTION_DOT": 5.19e-06, "MEAN_MOTION_DDOT": 0}, "tle": {"line1": "1 29953U 99025KB  25351.48510111  .00000519  00000+0  42969-3 0  9997", "line2": "2 29953  98.9376 338.2234 0105579 253.6066 228.1114 13.90852539959289"}}, "geometry": {"type": "Point", "coordinates": [-164.70691474147338, 75.21101726252162]}}, {"type": "Feature", "properties": {"norad_id": 29954, "name": "FENGYUN 1C DEB", "group": "fengyun-1c-debris", "lat": 27.411104459622795, "lon": -143.68883876053147, "alt_km": 787.4026984548282, "timestamp": "2025-12-17T23:38:07.126599+00:00", "meta": {"OBJECT_NAME": "FENGYUN 1C DEB", "OBJECT_ID": "1999-025KC", "EPOCH": "2025-12-17T14:32:59.574048", "MEAN_MOTION": 14.34254334, "ECCENTRICITY": 0.00744566, "INCLINATION": 100.1509, "RA_OF_ASC_NODE": 30.5362, "ARG_OF_PERICENTER": 255.4905, "MEAN_ANOMALY": 103.8006, "EPHEMERIS_TYPE": 0, "CLASSIFICATION_TYPE": "U", "NORAD_CAT_ID": 29954, "ELEMENT_SET_NO": 999, "REV_AT_EPOCH": 98257, "BSTAR": 0.0006559875, "MEAN_MOTION_DOT": 1.841e-05, "MEAN_MOTION_DDOT": 0}, "tle": {"line1": "1 29954U 99025KC  25351.60624507  .00001841  00000+0  65599-3 0  9990", "line2": "2 29954 100.1509  30.5362 0074456 255.4905 103.8006 14.34254334982574"}}, "geometry": {"type": "Point", "coordinates": [-143.68883876053147, 27.411104459622795]}}, {"type": "Feature", "properties": {"norad_id": 29955, "name": "FENGYUN 1C DEB", "group": "fengyun-1c-debris", "lat": -38.54570715791222, "lon": 80.5487780526796, "alt_km": 770.3106489179372, "timestamp": "2025-12-17T23:38:07.126609+00:00", "meta": {"OBJECT_NAME": "FENGYUN 1C DEB", "OBJECT_ID": "1999-025KD", "EPOCH": "2025-12-17T03:54:55.204416", "MEAN_MOTION": 14.3828119, "ECCENTRICITY": 0.0007862, "INCLINATION": 99.2741, "RA_OF_ASC_NODE": 72.1819, "ARG_OF_PERICENTER": 235.7647, "MEAN_ANOMALY": 153.0467, "EPHEMERIS_TYPE": 0, "CLASSIFICATION_TYPE": "U", "NORAD_CAT_ID": 29955, "ELEMENT_SET_NO": 999, "REV_AT_EPOCH": 98125, "BSTAR": 0.0011293659, "MEAN_MOTION_DOT": 3.387e-05, "MEAN_MOTION_DDOT": 0}, "tle": {"line1": "1 29955U 99025KD  25351.16313894  .00003387  00000+0  11294-2 0  9995", "line2": "2 29955  99.2741  72.1819 0007862 235.7647 153.0467 14.38281190981257"}}, "geometry": {"type": "Point", "coordinates": [80.5487780526796, -38.54570715791222]}}, {"type": "Feature", "properties": {"norad_id": 29956, "name": "FENGYUN 1C DEB", "group": "fengyun-1c-debris", "lat": 39.95362868340255, "lon": -151.8647069251206, "alt_km": 897.3832667348606, "timestamp": "2025-12-17T23:38:07.126620+00:00", "meta": {"OBJECT_NAME": "FENGYUN 1C DEB", "OBJECT_ID": "1999-025KE", "EPOCH": "2025-12-17T14:59:57.514272", "MEAN_MOTION": 14.06171176, "ECCENTRICITY": 0.00534631, "INCLINATION": 98.7911, "RA_OF_ASC_NODE": 20.3375, "ARG_OF_PERICENTER": 3.8661, "MEAN_ANOMALY": 114.5569, "EPHEMERIS_TYPE": 0, "CLASSIFICATION_TYPE": "U", "NORAD_CAT_ID": 29956, "ELEMENT_SET_NO": 999, "REV_AT_EPOCH": 97118, "BSTAR": 8.1380557e-05, "MEAN_MOTION_DOT": 9.3e-07, "MEAN_MOTION_DDOT": 0}, "tle": {"line1": "1 29956U 99025KE  25351.62497123  .00000093  00000+0  81381-4 0  9992", "line2": "2 29956  98.7911  20.3375 0053463   3.8661 114.5569 14.06171176971184"}}, "geometry": {"type": "Point", "coordinates": [-151.8647069251206, 39.95362868340255]}}, {"type": "Feature", "properties": {"norad_id": 29957, "name": "FENGYUN 1C DEB", "group": "fengyun-1c-debris", "lat": -37.70043753640729, "lon": 126.24174235677532, "alt_km": 752.6534546650391, "timestamp": "2025-12-17T23:38:07.126630+00:00", "meta": {"OBJECT_NAME": "FENGYUN 1C DEB", "OBJECT_ID": "1999-025KF", "EPOCH": "2025-12-17T07:32:44.428704", "MEAN_MOTION": 14.51275587, "ECCENTRICITY": 0.00375241, "INCLINATION": 98.9196, "RA_OF_ASC_NODE": 118.5591, "ARG_OF_PERICENTER": 164.8625, "MEAN_ANOMALY": 256.2591, "EPHEMERIS_TYPE": 0, "CLASSIFICATION_TYPE": "U", "NORAD_CAT_ID": 29957, "ELEMENT_SET_NO": 999, "REV_AT_EPOCH": 97558, "BSTAR": 0.0034577084, "MEAN_MOTION_DOT": 0.00013857, "MEAN_MOTION_DDOT": 0}, "tle": {"line1": "1 29957U 99025KF  25351.31440311  .00013857  00000+0  34577-2 0  9991", "line2": "2 29957  98.9196 118.5591 0037524 164.8625 256.2591 14.51275587975588"}}, "geometry": {"type": "Point", "coordinates": [126.24174235677532, -37.70043753640729]}}, {"type": "Feature", "properties": {"norad_id": 29958, "name": "FENGYUN 1C DEB", "group": "fengyun-1c-debris", "lat": -77.7414390214644, "lon": 141.60268662263258, "alt_km": 829.9023525077473, "timestamp": "2025-12-17T23:38:07.126640+00:00", "meta": {"OBJECT_NAME": "FENGYUN 1C DEB", "OBJECT_ID": "1999-025KG", "EPOCH": "2025-12-17T13:54:38.855232", "MEAN_MOTION": 14.14463546, "ECCENTRICITY": 0.00541212, "INCLINATION": 98.6681, "RA_OF_ASC_NODE": 5.8043, "ARG_OF_PERICENTER": 319.2519, "MEAN_ANOMALY": 40.4612, "EPHEMERIS_TYPE": 0, "CLASSIFICATION_TYPE": "U", "NORAD_CAT_ID": 29958, "ELEMENT_SET_NO": 999, "REV_AT_EPOCH": 97519, "BSTAR": 0.00029612436, "MEAN_MOTION_DOT": 5.32e-06, "MEAN_MOTION_DDOT": 0}, "tle": {"line1": "1 29958U 99025KG  25351.57961638  .00000532  00000+0  29612-3 0  9991", "line2": "2 29958  98.6681   5.8043 0054121 319.2519  40.4612 14.14463546975192"}}, "geometry": {"type": "Point", "coordinates": [141.60268662263258, -77.7414390214644]}}, {"type": "Feature", "properties": {"norad_id": 29959, "name": "FENGYUN 1C DEB", "group": "fengyun-1c-debris", "lat": 76.57320747533477, "lon": -17.99668229417849, "alt_km": 883.7658726584505, "timestamp": "2025-12-17T23:38:07.126651+00:00", "meta": {"OBJECT_NAME": "FENGYUN 1C DEB", "OBJECT_ID": "1999-025KH", "EPOCH": "2025-12-17T13:44:32.239968", "MEAN_MOTION": 14.06016576, "ECCENTRICITY": 0.00415153, "INCLINATION": 98.8077, "RA_OF_ASC_NODE": 22.1031, "ARG_OF_PERICENTER": 314.1368, "MEAN_ANOMALY": 200.0241, "EPHEMERIS_TYPE": 0, "CLASSIFICATION_TYPE": "U", "NORAD_CAT_ID": 29959, "ELEMENT_SET_NO": 999, "REV_AT_EPOCH": 97008, "BSTAR": 8.0860195e-05, "MEAN_MOTION_DOT": 9e-07, "MEAN_MOTION_DDOT": 0}, "tle": {"line1": "1 29959U 99025KH  25351.57259537  .00000090  00000+0  80860-4 0  9992", "line2": "2 29959  98.8077  22.1031 0041515 314.1368 200.0241 14.06016576970085"}}, "geometry": {"type": "Point", "coordinates": [-17.99668229417849, 76.57320747533477]}}, {"type": "Feature", "properties": {"norad_id": 29960, "name": "FENGYUN 1C DEB", "group": "fengyun-1c-debris", "lat": -8.436208923262749, "lon": -21.324975377128734, "alt_km": 830.0609071769668, "timestamp": "2025-12-17T23:38:07.126661+00:00", "meta": {"OBJECT_NAME": "FENGYUN 1C DEB", "OBJECT_ID": "1999-025KJ", "EPOCH": "2025-12-17T10:50:10.297248", "MEAN_MOTION": 14.16412314, "ECCENTRICITY": 0.0090834, "INCLINATION": 98.6146, "RA_OF_ASC_NODE": 336.8706, "ARG_OF_PERICENTER": 272.6106, "MEAN_ANOMALY": 240.1549, "EPHEMERIS_TYPE": 0, "CLASSIFICATION_TYPE": "U", "NORAD_CAT_ID": 29960, "ELEMENT_SET_NO": 999, "REV_AT_EPOCH": 97521, "BSTAR": 0.00040260616, "MEAN_MOTION_DOT": 7.9e-06, "MEAN_MOTION_DDOT": 0}, "tle": {"line1": "1 29960U 99025KJ  25351.45150807  .00000790  00000+0  40261-3 0  9998", "line2": "2 29960  98.6146 336.8706 0090834 272.6106 240.1549 14.16412314975219"}}, "geometry": {"type": "Point", "coordinates": [-21.324975377128734, -8.436208923262749]}}, {"type": "Feature", "properties": {"norad_id": 29961, "name": "FENGYUN 1C DEB", "group": "fengyun-1c-debris", "lat": -15.77412557621749, "lon": -117.96078750152734, "alt_km": 778.0395346978485, "timestamp": "2025-12-17T23:38:07.126672+00:00", "meta": {"OBJECT_NAME": "FENGYUN 1C DEB", "OBJECT_ID": "1999-025KK", "EPOCH": "2025-12-17T15:17:27.423744", "MEAN_MOTION": 14.26219356, "ECCENTRICITY": 0.00739726, "INCLINATION": 98.9485, "RA_OF_ASC_NODE": 239.1331, "ARG_OF_PERICENTER": 290.5938, "MEAN_ANOMALY": 68.7317, "EPHEMERIS_TYPE": 0, "CLASSIFICATION_TYPE": "U", "NORAD_CAT_ID": 29961, "ELEMENT_SET_NO": 999, "REV_AT_EPOCH": 98379, "BSTAR": 0.00015924285, "MEAN_MOTION_DOT": 3.46e-06, "MEAN_MOTION_DDOT": 0}, "tle": {"line1": "1 29961U 99025KK  25351.63712296  .00000346  00000+0  15924-3 0  9990", "line2": "2 29961  98.9485 239.1331 0073972 290.5938  68.7317 14.26219356983795"}}, "geometry": {"type": "Point", "coordinates": [-117.96078750152734, -15.77412557621749]}}, {"type": "Feature", "properties": {"norad_id": 29962, "name": "FENGYUN 1C DEB", "group": "fengyun-1c-debris", "lat": 24.634961647348057, "lon": -175.9393032405518, "alt_km": 818.1421153010124, "timestamp": "2025-12-17T23:38:07.126682+00:00", "meta": {"OBJECT_NAME": "FENGYUN 1C DEB", "OBJECT_ID": "1999-025KL", "EPOCH": "2025-12-17T11:41:31.037856", "MEAN_MOTION": 14.07160653, "ECCENTRICITY": 0.01099187, "INCLINATION": 98.7683, "RA_OF_ASC_NODE": 359.5194, "ARG_OF_PERICENTER": 207.7788, "MEAN_ANOMALY": 308.6198, "EPHEMERIS_TYPE": 0, "CLASSIFICATION_TYPE": "U", "NORAD_CAT_ID": 29962, "ELEMENT_SET_NO": 999, "REV_AT_EPOCH": 97064, "BSTAR": 0.00027768154, "MEAN_MOTION_DOT": 4.48e-06, "MEAN_MOTION_DDOT": 0}, "tle": {"line1": "1 29962U 99025KL  25351.48716479  .00000448  00000+0  27768-3 0  9993", "line2": "2 29962  98.7683 359.5194 0109918 207.7788 308.6198 14.07160653970648"}}, "geometry": {"type": "Point", "coordinates": [-175.9393032405518, 24.634961647348057]}}]}